{
  "type": "FeatureCollection",
  "features": [
    {
      "type": "Feature",
      "properties": {
        "norad_id": 36232,
        "name": "FENGYUN 1C DEB",
        "group": "fengyun-1c-debris",
        "lat": -23.657845995504893,
        "lon": -19.97085234517727,
        "alt_km": 786.3722737922872,
        "timestamp": "2025-12-18T07:01:54.877683+00:00",
        "meta_object_name": "FENGYUN 1C DEB",
        "meta_object_id": "1999-025DVH",
        "meta_epoch": "2025-12-13T16:38:24.949248",
        "meta_mean_motion": 14.12503312,
        "meta_eccentricity": 0.01190746,
        "meta_inclination": 98.7046,
        "meta_ra_of_asc_node": 331.7114,
        "meta_arg_of_pericenter": 25.4348,
        "meta_mean_anomaly": 335.262,
        "meta_ephemeris_type": 0,
        "meta_classification_type": "U",
        "meta_norad_cat_id": 36232,
        "meta_element_set_no": 999,
        "meta_rev_at_epoch": 61749,
        "meta_bstar": 0.00047398926,
        "meta_mean_motion_dot": 8.94e-06,
        "meta_mean_motion_ddot": 0,
        "tle_line1": "1 36232U 99025DVH 25347.69334432  .00000894  00000+0  47399-3 0  9991",
        "tle_line2": "2 36232  98.7046 331.7114 0119074  25.4348 335.2620 14.12503312617490"
      },
      "geometry": {
        "type": "Point",
        "coordinates": [
          -19.97085234517727,
          -23.657845995504893
        ]
      }
    },
    {
      "type": "Feature",
      "properties": {
        "norad_id": 36234,
        "name": "FENGYUN 1C DEB",
        "group": "fengyun-1c-debris",
        "lat": -16.019250256099557,
        "lon": -121.06563093761982,
        "alt_km": 1329.8202998440238,
        "timestamp": "2025-12-18T07:01:54.877693+00:00",
        "meta_object_name": "FENGYUN 1C DEB",
        "meta_object_id": "1999-025DVK",
        "meta_epoch": "2025-12-08T10:31:28.850304",
        "meta_mean_motion": 13.45655828,
        "meta_eccentricity": 0.03174488,
        "meta_inclination": 99.0031,
        "meta_ra_of_asc_node": 52.6849,
        "meta_arg_of_pericenter": 39.1104,
        "meta_mean_anomaly": 323.2521,
        "meta_ephemeris_type": 0,
        "meta_classification_type": "U",
        "meta_norad_cat_id": 36234,
        "meta_element_set_no": 999,
        "meta_rev_at_epoch": 87889,
        "meta_bstar": 0.00050484626,
        "meta_mean_motion_dot": 3.7e-06,
        "meta_mean_motion_ddot": 0,
        "tle_line1": "1 36234U 99025DVK 25342.43852836  .00000370  00000+0  50485-3 0  9992",
        "tle_line2": "2 36234  99.0031  52.6849 0317448  39.1104 323.2521 13.45655828878896"
      },
      "geometry": {
        "type": "Point",
        "coordinates": [
          -121.06563093761982,
          -16.019250256099557
        ]
      }
    },
    {
      "type": "Feature",
      "properties": {
        "norad_id": 36236,
        "name": "FENGYUN 1C DEB",
        "group": "fengyun-1c-debris",
        "lat": -33.496637883281345,
        "lon": 38.269590889958494,
        "alt_km": 857.997923594311,
        "timestamp": "2025-12-18T07:01:54.877704+00:00",
        "meta_object_name": "FENGYUN 1C DEB",
        "meta_object_id": "1999-025DVM",
        "meta_epoch": "2025-12-10T20:13:13.163808",
        "meta_mean_motion": 13.81954009,
        "meta_eccentricity": 0.0149575,
        "meta_inclination": 98.85,
        "meta_ra_of_asc_node": 25.3566,
        "meta_arg_of_pericenter": 3.3066,
        "meta_mean_anomaly": 356.9043,
        "meta_ephemeris_type": 0,
        "meta_classification_type": "U",
        "meta_norad_cat_id": 36236,
        "meta_element_set_no": 999,
        "meta_rev_at_epoch": 59721,
        "meta_bstar": 0.00040381,
        "meta_mean_motion_dot": 4.31e-06,
        "meta_mean_motion_ddot": 0,
        "tle_line1": "1 36236U 99025DVM 25344.84251347  .00000431  00000+0  40381-3 0  9993",
        "tle_line2": "2 36236  98.8500  25.3566 0149575   3.3066 356.9043 13.81954009597212"
      },
      "geometry": {
        "type": "Point",
        "coordinates": [
          38.269590889958494,
          -33.496637883281345
        ]
      }
    },
    {
      "type": "Feature",
      "properties": {
        "norad_id": 36238,
        "name": "FENGYUN 1C DEB",
        "group": "fengyun-1c-debris",
        "lat": -5.856781537374919,
        "lon": -34.53948398822672,
        "alt_km": 854.5301214488118,
        "timestamp": "2025-12-18T07:01:54.877714+00:00",
        "meta_object_name": "FENGYUN 1C DEB",
        "meta_object_id": "1999-025DVP",
        "meta_epoch": "2025-12-17T20:51:31.332960",
        "meta_mean_motion": 14.12392162,
        "meta_eccentricity": 0.00200877,
        "meta_inclination": 98.6473,
        "meta_ra_of_asc_node": 324.1571,
        "meta_arg_of_pericenter": 266.4872,
        "meta_mean_anomaly": 93.4003,
        "meta_ephemeris_type": 0,
        "meta_classification_type": "U",
        "meta_norad_cat_id": 36238,
        "meta_element_set_no": 999,
        "meta_rev_at_epoch": 87090,
        "meta_bstar": 7.5905666e-05,
        "meta_mean_motion_dot": 9.8e-07,
        "meta_mean_motion_ddot": 0,
        "tle_line1": "1 36238U 99025DVP 25351.86911265  .00000098  00000+0  75906-4 0  9998",
        "tle_line2": "2 36238  98.6473 324.1571 0020087 266.4872  93.4003 14.12392162870900"
      },
      "geometry": {
        "type": "Point",
        "coordinates": [
          -34.53948398822672,
          -5.856781537374919
        ]
      }
    },
    {
      "type": "Feature",
      "properties": {
        "norad_id": 36244,
        "name": "FENGYUN 1C DEB",
        "group": "fengyun-1c-debris",
        "lat": 31.77144145662174,
        "lon": -71.41075117917909,
        "alt_km": 824.3790048297851,
        "timestamp": "2025-12-18T07:01:54.877724+00:00",
        "meta_object_name": "FENGYUN 1C DEB",
        "meta_object_id": "1999-025DVV",
        "meta_epoch": "2025-12-14T06:16:57.462816",
        "meta_mean_motion": 14.24987194,
        "meta_eccentricity": 0.00489535,
        "meta_inclination": 98.9249,
        "meta_ra_of_asc_node": 98.9064,
        "meta_arg_of_pericenter": 280.0452,
        "meta_mean_anomaly": 79.5205,
        "meta_ephemeris_type": 0,
        "meta_classification_type": "U",
        "meta_norad_cat_id": 36244,
        "meta_element_set_no": 999,
        "meta_rev_at_epoch": 92000,
        "meta_bstar": 0.0019822396,
        "meta_mean_motion_dot": 4.653e-05,
        "meta_mean_motion_ddot": 0,
        "tle_line1": "1 36244U 99025DVV 25348.26177619  .00004653  00000+0  19822-2 0  9996",
        "tle_line2": "2 36244  98.9249  98.9064 0048953 280.0452  79.5205 14.24987194920006"
      },
      "geometry": {
        "type": "Point",
        "coordinates": [
          -71.41075117917909,
          31.77144145662174
        ]
      }
    },
    {
      "type": "Feature",
      "properties": {
        "norad_id": 36247,
        "name": "FENGYUN 1C DEB",
        "group": "fengyun-1c-debris",
        "lat": -81.10036899053212,
        "lon": 116.9002440450077,
        "alt_km": 831.7197284187259,
        "timestamp": "2025-12-18T07:01:54.877734+00:00",
        "meta_object_name": "FENGYUN 1C DEB",
        "meta_object_id": "1999-025DVY",
        "meta_epoch": "2025-12-16T06:53:01.654944",
        "meta_mean_motion": 14.33595644,
        "meta_eccentricity": 0.01870253,
        "meta_inclination": 98.2684,
        "meta_ra_of_asc_node": 3.2056,
        "meta_arg_of_pericenter": 23.1767,
        "meta_mean_anomaly": 337.7717,
        "meta_ephemeris_type": 0,
        "meta_classification_type": "U",
        "meta_norad_cat_id": 36247,
        "meta_element_set_no": 999,
        "meta_rev_at_epoch": 70313,
        "meta_bstar": 0.00039456093,
        "meta_mean_motion_dot": 1.283e-05,
        "meta_mean_motion_ddot": 0,
        "tle_line1": "1 36247U 99025DVY 25350.28682471  .00001283  00000+0  39456-3 0  9993",
        "tle_line2": "2 36247  98.2684   3.2056 0187025  23.1767 337.7717 14.33595644703139"
      },
      "geometry": {
        "type": "Point",
        "coordinates": [
          116.9002440450077,
          -81.10036899053212
        ]
      }
    },
    {
      "type": "Feature",
      "properties": {
        "norad_id": 36254,
        "name": "FENGYUN 1C DEB",
        "group": "fengyun-1c-debris",
        "lat": -21.890226577194746,
        "lon": 123.96697499677443,
        "alt_km": 544.8284573573055,
        "timestamp": "2025-12-18T07:01:54.877744+00:00",
        "meta_object_name": "FENGYUN 1C DEB",
        "meta_object_id": "1999-025DWF",
        "meta_epoch": "2025-12-05T14:18:33.769152",
        "meta_mean_motion": 15.16034114,
        "meta_eccentricity": 0.00460205,
        "meta_inclination": 99.5281,
        "meta_ra_of_asc_node": 291.8918,
        "meta_arg_of_pericenter": 66.714,
        "meta_mean_anomaly": 293.892,
        "meta_ephemeris_type": 0,
        "meta_classification_type": "U",
        "meta_norad_cat_id": 36254,
        "meta_element_set_no": 999,
        "meta_rev_at_epoch": 60668,
        "meta_bstar": 0.005730812,
        "meta_mean_motion_dot": 0.00114745,
        "meta_mean_motion_ddot": 0,
        "tle_line1": "1 36254U 99025DWF 25339.59622418  .00114745  00000+0  57308-2 0  9990",
        "tle_line2": "2 36254  99.5281 291.8918 0046020  66.7140 293.8920 15.16034114606685"
      },
      "geometry": {
        "type": "Point",
        "coordinates": [
          123.96697499677443,
          -21.890226577194746
        ]
      }
    }
  ]
}